{"type": "FeatureCollection", "features": [ {"type": "Feature", "properties": {"norad_id": 31482, "name": "FENGYUN 1C DEB", "group": "fengyun-1c-debris", "lat": 28.025288932112744, "lon": 166.47235264279175, "alt_km": 830.6410104565894, "timestamp": "2025-12-03T20:47:58.506684+00:00", "meta": {"OBJECT_NAME": "FENGYUN 1C DEB", "OBJECT_ID": "1999-025BVW", "EPOCH": "2025-12-03T06:47:16.506816", "MEAN_MOTION": 14.35585898, "ECCENTRICITY": 0.0089088, "INCLINATION": 98.382, "RA_OF_ASC_NODE": 341.4038, "ARG_OF_PERICENTER": 310.7779, "MEAN_ANOMALY": 65.6558, "EPHEMERIS_TYPE": 0, "CLASSIFICATION_TYPE": "U", "NORAD_CAT_ID": 31482, "ELEMENT_SET_NO": 999, "REV_AT_EPOCH": 96994, "BSTAR": 0.0011353, "MEAN_MOTION_DOT": 3.379e-05, "MEAN_MOTION_DDOT": 0}, "tle": {"line1": "1 31482U 99025BVW 25337.28282994  .00003379  00000+0  11353-2 0  9993", "line2": "2 31482  98.3820 341.4038 0089088 310.7779  65.6558 14.35585898969948"}}, "geometry": {"type": "Point", "coordinates": [166.47235264279175, 28.025288932112744]}}, {"type": "Feature", "properties": {"norad_id": 31483, "name": "FENGYUN 1C DEB", "group": "fengyun-1c-debris", "lat": -76.84342389636143, "lon": 32.93861670975018, "alt_km": 766.9327590545154, "timestamp": "2025-12-03T20:47:58.506695+00:00", "meta": {"OBJECT_NAME": "FENGYUN 1C DEB", "OBJECT_ID": "1999-025BVX", "EPOCH": "2025-12-03T08:24:30.284928", "MEAN_MOTION": 14.1583344, "ECCENTRICITY": 0.0119325, "INCLINATION": 102.5023, "RA_OF_ASC_NODE": 283.8786, "ARG_OF_PERICENTER": 244.5837, "MEAN_ANOMALY": 270.4752, "EPHEMERIS_TYPE": 0, "CLASSIFICATION_TYPE": "U", "NORAD_CAT_ID": 31483, "ELEMENT_SET_NO": 999, "REV_AT_EPOCH": 94573, "BSTAR": 0.0036394, "MEAN_MOTION_DOT": 7.603e-05, "MEAN_MOTION_DDOT": 0}, "tle": {"line1": "1 31483U 99025BVX 25337.35035052  .00007603  00000+0  36394-2 0  9999", "line2": "2 31483 102.5023 283.8786 0119325 244.5837 270.4752 14.15833440945738"}}, "geometry": {"type": "Point", "coordinates": [32.93861670975018, -76.84342389636143]}}, {"type": "Feature", "properties": {"norad_id": 31484, "name": "FENGYUN 1C DEB", "group": "fengyun-1c-debris", "lat": -75.17195498631209, "lon": -37.084769084401664, "alt_km": 745.7445639327489, "timestamp": "2025-12-03T20:47:58.506706+00:00", "meta": {"OBJECT_NAME": "FENGYUN 1C DEB", "OBJECT_ID": "1999-025BVY", "EPOCH": "2025-12-01T06:14:16.664640", "MEAN_MOTION": 14.4971956, "ECCENTRICITY": 0.00824182, "INCLINATION": 101.8049, "RA_OF_ASC_NODE": 267.0929, "ARG_OF_PERICENTER": 183.373, "MEAN_ANOMALY": 176.6905, "EPHEMERIS_TYPE": 0, "CLASSIFICATION_TYPE": "U", "NORAD_CAT_ID": 31484, "ELEMENT_SET_NO": 999, "REV_AT_EPOCH": 64071, "BSTAR": 0.0059253262, "MEAN_MOTION_DOT": 0.00023837, "MEAN_MOTION_DDOT": 0}, "tle": {"line1": "1 31484U 99025BVY 25335.25991510  .00023837  00000+0  59253-2 0  9993", "line2": "2 31484 101.8049 267.0929 0082418 183.3730 176.6905 14.49719560640716"}}, "geometry": {"type": "Point", "coordinates": [-37.084769084401664, -75.17195498631209]}}, {"type": "Feature", "properties": {"norad_id": 31485, "name": "FENGYUN 1C DEB", "group": "fengyun-1c-debris", "lat": -75.13368989654113, "lon": -138.87249848046795, "alt_km": 940.1982076932036, "timestamp": "2025-12-03T20:47:58.506716+00:00", "meta": {"OBJECT_NAME": "FENGYUN 1C DEB", "OBJECT_ID": "1999-025BVZ", "EPOCH": "2025-12-02T18:18:04.263840", "MEAN_MOTION": 13.39966891, "ECCENTRICITY": 0.044543, "INCLINATION": 102.7192, "RA_OF_ASC_NODE": 161.4429, "ARG_OF_PERICENTER": 340.4326, "MEAN_ANOMALY": 18.0159, "EPHEMERIS_TYPE": 0, "CLASSIFICATION_TYPE": "U", "NORAD_CAT_ID": 31485, "ELEMENT_SET_NO": 999, "REV_AT_EPOCH": 90311, "BSTAR": 0.0039439887, "MEAN_MOTION_DOT": 3.774e-05, "MEAN_MOTION_DDOT": 0}, "tle": {"line1": "1 31485U 99025BVZ 25336.76254935  .00003774  00000+0  39440-2 0  9998", "line2": "2 31485 102.7192 161.4429 0445430 340.4326  18.0159 13.39966891903117"}}, "geometry": {"type": "Point", "coordinates": [-138.87249848046795, -75.13368989654113]}}, {"type": "Feature", "properties": {"norad_id": 31487, "name": "FENGYUN 1C DEB", "group": "fengyun-1c-debris", "lat": 0.7267097130597083, "lon": 143.0846013931283, "alt_km": 831.2991769494556, "timestamp": "2025-12-03T20:47:58.506727+00:00", "meta": {"OBJECT_NAME": "FENGYUN 1C DEB", "OBJECT_ID": "1999-025BWB", "EPOCH": "2025-12-02T06:08:26.132064", "MEAN_MOTION": 13.97663121, "ECCENTRICITY": 0.0119744, "INCLINATION": 102.4135, "RA_OF_ASC_NODE": 141.0753, "ARG_OF_PERICENTER": 331.4925, "MEAN_ANOMALY": 207.6466, "EPHEMERIS_TYPE": 0, "CLASSIFICATION_TYPE": "U", "NORAD_CAT_ID": 31487, "ELEMENT_SET_NO": 999, "REV_AT_EPOCH": 94265, "BSTAR": 0.0016318, "MEAN_MOTION_DOT": 2.376e-05, "MEAN_MOTION_DDOT": 0}, "tle": {"line1": "1 31487U 99025BWB 25336.25585801  .00002376  00000+0  16318-2 0  9999", "line2": "2 31487 102.4135 141.0753 0119744 331.4925 207.6466 13.97663121942651"}}, "geometry": {"type": "Point", "coordinates": [143.0846013931283, 0.7267097130597083]}}, {"type": "Feature", "properties": {"norad_id": 31491, "name": "FENGYUN 1C DEB", "group": "fengyun-1c-debris", "lat": -57.97811895714728, "lon": -98.74737376820072, "alt_km": 803.8563522514814, "timestamp": "2025-12-03T20:47:58.506738+00:00", "meta": {"OBJECT_NAME": "FENGYUN 1C DEB", "OBJECT_ID": "1999-025BWE", "EPOCH": "2025-11-29T05:14:19.576896", "MEAN_MOTION": 14.17099923, "ECCENTRICITY": 0.00534374, "INCLINATION": 99.302, "RA_OF_ASC_NODE": 241.2001, "ARG_OF_PERICENTER": 306.7475, "MEAN_ANOMALY": 52.8798, "EPHEMERIS_TYPE": 0, "CLASSIFICATION_TYPE": "U", "NORAD_CAT_ID": 31491, "ELEMENT_SET_NO": 999, "REV_AT_EPOCH": 63536, "BSTAR": 0.0019103725, "MEAN_MOTION_DOT": 3.854e-05, "MEAN_MOTION_DDOT": 0}, "tle": {"line1": "1 31491U 99025BWE 25333.21828214  .00003854  00000+0  19104-2 0  9993", "line2": "2 31491  99.3020 241.2001 0053437 306.7475  52.8798 14.17099923635364"}}, "geometry": {"type": "Point", "coordinates": [-98.74737376820072, -57.97811895714728]}}, {"type": "Feature", "properties": {"norad_id": 31492, "name": "FENGYUN 1C DEB", "group": "fengyun-1c-debris", "lat": -65.9231440639582, "lon": 163.54200649446298, "alt_km": 678.3639559203211, "timestamp": "2025-12-03T20:47:58.506748+00:00", "meta": {"OBJECT_NAME": "FENGYUN 1C DEB", "OBJECT_ID": "1999-025BWF", "EPOCH": "2025-11-30T16:19:50.588832", "MEAN_MOTION": 14.70037284, "ECCENTRICITY": 0.00642617, "INCLINATION": 98.8558, "RA_OF_ASC_NODE": 139.6647, "ARG_OF_PERICENTER": 46.3479, "MEAN_ANOMALY": 314.3027, "EPHEMERIS_TYPE": 0, "CLASSIFICATION_TYPE": "U", "NORAD_CAT_ID": 31492, "ELEMENT_SET_NO": 999, "REV_AT_EPOCH": 96329, "BSTAR": 0.0030343762, "MEAN_MOTION_DOT": 0.00018787, "MEAN_MOTION_DDOT": 0}, "tle": {"line1": "1 31492U 99025BWF 25334.68044663  .00018787  00000+0  30344-2 0  9994", "line2": "2 31492  98.8558 139.6647 0064261  46.3479 314.3027 14.70037284963297"}}, "geometry": {"type": "Point", "coordinates": [163.54200649446298, -65.9231440639582]}}, {"type": "Feature", "properties": {"norad_id": 31493, "name": "FENGYUN 1C DEB", "group": "fengyun-1c-debris", "lat": -19.665404301288266, "lon": 99.26103679924152, "alt_km": 837.9816715949191, "timestamp": "2025-12-03T20:47:58.506758+00:00", "meta": {"OBJECT_NAME": "FENGYUN 1C DEB", "OBJECT_ID": "1999-025BWG", "EPOCH": "2025-12-02T16:15:30.729600", "MEAN_MOTION": 13.92937252, "ECCENTRICITY": 0.01169898, "INCLINATION": 100.135, "RA_OF_ASC_NODE": 281.6254, "ARG_OF_PERICENTER": 202.4097, "MEAN_ANOMALY": 157.1925, "EPHEMERIS_TYPE": 0, "CLASSIFICATION_TYPE": "U", "NORAD_CAT_ID": 31493, "ELEMENT_SET_NO": 999, "REV_AT_EPOCH": 59726, "BSTAR": 0.00081568072, "MEAN_MOTION_DOT": 1.068e-05, "MEAN_MOTION_DDOT": 0}, "tle": {"line1": "1 31493U 99025BWG 25336.67743900  .00001068  00000+0  81568-3 0  9995", "line2": "2 31493 100.1350 281.6254 0116989 202.4097 157.1925 13.92937252597260"}}, "geometry": {"type": "Point", "coordinates": [99.26103679924152, -19.665404301288266]}}, {"type": "Feature", "properties": {"norad_id": 31495, "name": "FENGYUN 1C DEB", "group": "fengyun-1c-debris", "lat": -45.57056666618401, "lon": -139.93647203436572, "alt_km": 807.0660215140815, "timestamp": "2025-12-03T20:47:58.506769+00:00", "meta": {"OBJECT_NAME": "FENGYUN 1C DEB", "OBJECT_ID": "1999-025BWJ", "EPOCH": "2025-11-29T09:28:29.855136", "MEAN_MOTION": 14.2907414, "ECCENTRICITY": 0.00253264, "INCLINATION": 99.1199, "RA_OF_ASC_NODE": 205.9571, "ARG_OF_PERICENTER": 218.4335, "MEAN_ANOMALY": 141.5042, "EPHEMERIS_TYPE": 0, "CLASSIFICATION_TYPE": "U", "NORAD_CAT_ID": 31495, "ELEMENT_SET_NO": 999, "REV_AT_EPOCH": 63200, "BSTAR": 0.0012827316, "MEAN_MOTION_DOT": 3.214e-05, "MEAN_MOTION_DDOT": 0}, "tle": {"line1": "1 31495U 99025BWJ 25333.39478999  .00003214  00000+0  12827-2 0  9992", "line2": "2 31495  99.1199 205.9571 0025326 218.4335 141.5042 14.29074140632005"}}, "geometry": {"type": "Point", "coordinates": [-139.93647203436572, -45.57056666618401]}}, {"type": "Feature", "properties": {"norad_id": 31497, "name": "FENGYUN 1C DEB", "group": "fengyun-1c-debris", "lat": 29.945476297198525, "lon": 146.50004301215355, "alt_km": 850.6704427678678, "timestamp": "2025-12-03T20:47:58.506779+00:00", "meta": {"OBJECT_NAME": "FENGYUN 1C DEB", "OBJECT_ID": "1999-025BWL", "EPOCH": "2025-12-03T05:08:39.245568", "MEAN_MOTION": 14.39191841, "ECCENTRICITY": 0.0168475, "INCLINATION": 98.3696, "RA_OF_ASC_NODE": 320.9979, "ARG_OF_PERICENTER": 11.741, "MEAN_ANOMALY": 358.9016, "EPHEMERIS_TYPE": 0, "CLASSIFICATION_TYPE": "U", "NORAD_CAT_ID": 31497, "ELEMENT_SET_NO": 999, "REV_AT_EPOCH": 97418, "BSTAR": 0.00041155, "MEAN_MOTION_DOT": 1.457e-05, "MEAN_MOTION_DDOT": 0}, "tle": {"line1": "1 31497U 99025BWL 25337.21434312  .00001457  00000+0  41155-3 0  9994", "line2": "2 31497  98.3696 320.9979 0168475  11.7410 358.9016 14.39191841974183"}}, "geometry": {"type": "Point", "coordinates": [146.50004301215355, 29.945476297198525]}}]}